H1 CPF  1  DGF 2022 07 19 12  7001 larets     NONE      
H2   304206 5557    27944 2022 07 19 00 00 00 2022 07 26 00 00 00    30 1 1  0 0 0
H5  0.0650
H9
10 0 59783  72000.000000  0        911757.605       1792274.184       6760834.971
10 0 59783  72030.000000  0        930671.007       1571356.515       6812611.401
10 0 59783  72060.000000  0        947671.842       1348769.045       6857438.442
10 0 59783  72090.000000  0        962736.025       1124745.474       6895269.814
10 0 59783  72120.000000  0        975842.454        899521.086       6926066.319
10 0 59783  72150.000000  0        986973.029        673332.502       6949795.883
10 0 59783  72180.000000  0        996112.686        446417.437       6966433.590
10 0 59783  72210.000000  0       1003249.408        219014.448       6975961.715
10 0 59783  72240.000000  0       1008374.248         -8637.315       6978369.742
10 0 59783  72270.000000  0       1011481.335       -236298.366       6973654.385
10 0 59783  72300.000000  0       1012567.883       -463729.138       6961819.589
10 0 59783  72330.000000  0       1011634.196       -690690.232       6942876.528
10 0 59783  72360.000000  0       1008683.669       -916942.671       6916843.599
10 0 59783  72390.000000  0       1003722.779      -1142248.149       6883746.405
10 0 59783  72420.000000  0        996761.077      -1366369.284       6843617.740
10 0 59783  72450.000000  0        987811.177      -1589069.872       6796497.563
10 0 59783  72480.000000  0        976888.734      -1810115.139       6742432.956
10 0 59783  72510.000000  0        964012.428      -2029271.987       6681478.087
10 0 59783  72540.000000  0        949203.937      -2246309.248       6613694.164
10 0 59783  72570.000000  0        932487.909      -2460997.931       6539149.377
10 0 59783  72600.000000  0        913891.923      -2673111.476       6457918.829
10 0 59783  72630.000000  0        893446.450      -2882425.988       6370084.467
10 0 59783  72660.000000  0        871184.814      -3088720.481       6275735.000
10 0 59783  72690.000000  0        847143.143      -3291777.109       6174965.810
10 0 59783  72720.000000  0        821360.325      -3491381.403       6067878.874
10 0 59783  72750.000000  0        793877.952      -3687322.499       5954582.657
10 0 59783  72780.000000  0        764740.266      -3879393.373       5835192.016
10 0 59783  72810.000000  0        733994.094      -4067391.062       5709828.083
10 0 59783  72840.000000  0        701688.791      -4251116.884       5578618.153
10 0 59783  72870.000000  0        667876.164      -4430376.654       5441695.560
10 0 59783  72900.000000  0        632610.408      -4604980.903       5299199.548
10 0 59783  72930.000000  0        595948.031      -4774745.082       5151275.140
10 0 59783  72960.000000  0        557947.773      -4939489.778       4998072.994
10 0 59783  72990.000000  0        518670.523      -5099040.908       4839749.253
10 0 59783  73020.000000  0        478179.240      -5253229.923       4676465.383
10 0 59783  73050.000000  0        436538.857      -5401893.990       4508388.018
10 0 59783  73080.000000  0        393816.195      -5544876.180       4335688.783
10 0 59783  73110.000000  0        350079.861      -5682025.640       4158544.123
10 0 59783  73140.000000  0        305400.161      -5813197.766       3977135.123
10 0 59783  73170.000000  0        259848.993      -5938254.367       3791647.324
10 0 59783  73200.000000  0        213499.746      -6057063.822       3602270.530
10 0 59783  73230.000000  0        166427.199      -6169501.231       3409198.612
10 0 59783  73260.000000  0        118707.409      -6275448.554       3212629.302
10 0 59783  73290.000000  0         70417.605      -6374794.748       3012763.992
10 0 59783  73320.000000  0         21636.076      -6467435.888       2809807.515
10 0 59783  73350.000000  0        -27557.945      -6553275.284       2603967.936
10 0 59783  73380.000000  0        -77084.390      -6632223.585       2395456.337
10 0 59783  73410.000000  0       -126862.475      -6704198.892       2184486.595
10 0 59783  73440.000000  0       -176810.816      -6769126.844       1971275.161
10 0 59783  73470.000000  0       -226847.544      -6826940.713       1756040.826
10 0 59783  73500.000000  0       -276890.429      -6877581.478       1539004.487
10 0 59783  73530.000000  0       -326857.000      -6920997.893       1320388.909
10 0 59783  73560.000000  0       -376664.666      -6957146.537       1100418.484
10 0 59783  73590.000000  0       -426230.834      -6985991.867        879318.992
10 0 59783  73620.000000  0       -475473.035      -7007506.248        657317.357
10 0 59783  73650.000000  0       -524309.042      -7021669.983        434641.403
10 0 59783  73680.000000  0       -572656.993      -7028471.330        211519.613
10 0 59783  73710.000000  0       -620435.505      -7027906.508        -11819.120
10 0 59783  73740.000000  0       -667563.801      -7019979.694       -235145.734
10 0 59783  73770.000000  0       -713961.824      -7004703.012       -458231.247
10 0 59783  73800.000000  0       -759550.354      -6982096.514       -680846.997
10 0 59783  73830.000000  0       -804251.125      -6952188.143       -902764.888
10 0 59783  73860.000000  0       -847986.943      -6915013.699      -1123757.629
10 0 59783  73890.000000  0       -890681.792      -6870616.786      -1343598.976
10 0 59783  73920.000000  0       -932260.954      -6819048.760      -1562063.969
10 0 59783  73950.000000  0       -972651.116      -6760368.656      -1778929.172
10 0 59783  73980.000000  0      -1011780.477      -6694643.119      -1993972.907
10 0 59783  74010.000000  0      -1049578.859      -6621946.317      -2206975.487
10 0 59783  74040.000000  0      -1085977.806      -6542359.846      -2417719.448
10 0 59783  74070.000000  0      -1120910.688      -6455972.630      -2625989.776
10 0 59783  74100.000000  0      -1154312.798      -6362880.807      -2831574.130
10 0 59783  74130.000000  0      -1186121.453      -6263187.616      -3034263.061
10 0 59783  74160.000000  0      -1216276.084      -6157003.264      -3233850.232
10 0 59783  74190.000000  0      -1244718.324      -6044444.796      -3430132.627
10 0 59783  74220.000000  0      -1271392.101      -5925635.950      -3622910.758
10 0 59783  74250.000000  0      -1296243.718      -5800707.004      -3811988.870
10 0 59783  74280.000000  0      -1319221.932      -5669794.625      -3997175.133
10 0 59783  74310.000000  0      -1340278.032      -5533041.704      -4178281.837
10 0 59783  74340.000000  0      -1359365.915      -5390597.188      -4355125.576
10 0 59783  74370.000000  0      -1376442.153      -5242615.904      -4527527.428
10 0 59783  74400.000000  0      -1391466.061      -5089258.383      -4695313.134
10 0 59783  74430.000000  0      -1404399.760      -4930690.672      -4858313.264
10 0 59783  74460.000000  0      -1415208.232      -4767084.142      -5016363.387
10 0 59783  74490.000000  0      -1423859.382      -4598615.298      -5169304.222
10 0 59783  74520.000000  0      -1430324.081      -4425465.573      -5316981.798
10 0 59783  74550.000000  0      -1434576.219      -4247821.125      -5459247.596
10 0 59783  74580.000000  0      -1436592.744      -4065872.633      -5595958.693
10 0 59783  74610.000000  0      -1436353.706      -3879815.076      -5726977.890
10 0 59783  74640.000000  0      -1433842.284      -3689847.527      -5852173.850
10 0 59783  74670.000000  0      -1429044.824      -3496172.925      -5971421.212
10 0 59783  74700.000000  0      -1421950.862      -3298997.857      -6084600.711
10 0 59783  74730.000000  0      -1412553.150      -3098532.329      -6191599.285
10 0 59783  74760.000000  0      -1400847.668      -2894989.536      -6292310.174
10 0 59783  74790.000000  0      -1386833.646      -2688585.638      -6386633.018
10 0 59783  74820.000000  0      -1370513.568      -2479539.522      -6474473.945
10 0 59783  74850.000000  0      -1351893.183      -2268072.575      -6555745.651
10 0 59783  74880.000000  0      -1330981.506      -2054408.444      -6630367.478
10 0 59783  74910.000000  0      -1307790.815      -1838772.804      -6698265.484
10 0 59783  74940.000000  0      -1282336.647      -1621393.118      -6759372.505
10 0 59783  74970.000000  0      -1254637.787      -1402498.400      -6813628.215
10 0 59783  75000.000000  0      -1224716.258      -1182318.977      -6860979.170
10 0 59783  75030.000000  0      -1192597.301       -961086.247      -6901378.862
10 0 59783  75060.000000  0      -1158309.351       -739032.443      -6934787.750
10 0 59783  75090.000000  0      -1121884.016       -516390.387      -6961173.292
10 0 59783  75120.000000  0      -1083356.039       -293393.257      -6980509.968
10 0 59783  75150.000000  0      -1042763.270        -70274.347      -6992779.301
10 0 59783  75180.000000  0      -1000146.625        152733.165      -6997969.866
10 0 59783  75210.000000  0       -955550.046        375396.461      -6996077.304
10 0 59783  75240.000000  0       -909020.456        597483.314      -6987104.322
10 0 59783  75270.000000  0       -860607.710        818762.335      -6971060.686
10 0 59783  75300.000000  0       -810364.538       1039003.200      -6947963.205
10 0 59783  75330.000000  0       -758346.498       1257976.885      -6917835.715
10 0 59783  75360.000000  0       -704611.910       1475455.894      -6880709.049
10 0 59783  75390.000000  0       -649221.795       1691214.487      -6836621.019
10 0 59783  75420.000000  0       -592239.809       1905028.916      -6785616.374
10 0 59783  75450.000000  0       -533732.172       2116677.647      -6727746.761
10 0 59783  75480.000000  0       -473767.593       2325941.587      -6663070.675
10 0 59783  75510.000000  0       -412417.191       2532604.307      -6591653.405
10 0 59783  75540.000000  0       -349754.417       2736452.260      -6513566.980
10 0 59783  75570.000000  0       -285854.970       2937275.004      -6428890.096
99
